ONEWEB-0656             
1 55817U 23029X   25097.22376338  .00000151  00000+0  33894-3 0  9995
2 55817  87.9334   1.2033 0001988  94.0943 266.0418 13.20774391103600
ONEWEB-0657             
1 55818U 23029Y   25097.50549231  .00000016  00000+0  78223-5 0  9998
2 55818  87.9253  31.5824 0001337 101.7299 258.3984 13.19729001101441
ONEWEB-0658             
1 55819U 23029Z   25097.27331074  .00000093  00000+0  19883-3 0  9997
2 55819  87.9250  31.5623 0001757  63.7814 296.3499 13.19723554101420
ONEWEB-0660             
1 55820U 23029AA  25097.27622069  .00000083  00000+0  18945-3 0  9993
2 55820  87.9092  16.3706 0002127  70.7848 289.3512 13.14504819102139
ONEWEB-0664             
1 55824U 23029AE  25097.21113058  .00000093  00000+0  19666-3 0  9996
2 55824  87.9334   1.2817 0002265  83.6706 276.4686 13.20770586103590
